{
  "type": "FeatureCollection",
  "features": [
    {
      "type": "Feature",
      "properties": {
        "norad_id": 36559,
        "name": "COSMOS 2251 DEB",
        "group": "cosmos-2251-debris",
        "lat": -46.11035112720569,
        "lon": -6.033738894033718,
        "alt_km": 921.3465183580765,
        "timestamp": "2025-12-11T22:43:47.668101+00:00",
        "meta_object_name": "COSMOS 2251 DEB",
        "meta_object_id": "1993-036BDV",
        "meta_epoch": "2025-12-09T02:07:20.280288",
        "meta_mean_motion": 13.95143806,
        "meta_eccentricity": 0.02599602,
        "meta_inclination": 74.1299,
        "meta_ra_of_asc_node": 16.0496,
        "meta_arg_of_pericenter": 49.9692,
        "meta_mean_anomaly": 312.3935,
        "meta_ephemeris_type": 0,
        "meta_classification_type": "U",
        "meta_norad_cat_id": 36559,
        "meta_element_set_no": 999,
        "meta_rev_at_epoch": 81043,
        "meta_bstar": 0.0028021544,
        "meta_mean_motion_dot": 4.995e-05,
        "meta_mean_motion_ddot": 0,
        "tle_line1": "1 36559U 93036BDV 25343.08842917  .00004995  00000+0  28022-2 0  9997",
        "tle_line2": "2 36559  74.1299  16.0496 0259960  49.9692 312.3935 13.95143806810430"
      },
      "geometry": {
        "type": "Point",
        "coordinates": [
          -6.033738894033718,
          -46.11035112720569
        ]
      }
    },
    {
      "type": "Feature",
      "properties": {
        "norad_id": 36614,
        "name": "COSMOS 2251 DEB",
        "group": "cosmos-2251-debris",
        "lat": -45.40359945242284,
        "lon": 159.20683597777895,
        "alt_km": 694.1745629578381,
        "timestamp": "2025-12-11T22:43:47.668111+00:00",
        "meta_object_name": "COSMOS 2251 DEB",
        "meta_object_id": "1993-036BEC",
        "meta_epoch": "2025-12-11T06:30:21.400992",
        "meta_mean_motion": 14.60233542,
        "meta_eccentricity": 0.00161993,
        "meta_inclination": 74.0218,
        "meta_ra_of_asc_node": 177.391,
        "meta_arg_of_pericenter": 247.2616,
        "meta_mean_anomaly": 112.6838,
        "meta_ephemeris_type": 0,
        "meta_classification_type": "U",
        "meta_norad_cat_id": 36614,
        "meta_element_set_no": 999,
        "meta_rev_at_epoch": 65591,
        "meta_bstar": 0.0024222077,
        "meta_mean_motion_dot": 0.00011696,
        "meta_mean_motion_ddot": 0,
        "tle_line1": "1 36614U 93036BEC 25345.27108103  .00011696  00000+0  24222-2 0  9998",
        "tle_line2": "2 36614  74.0218 177.3910 0016199 247.2616 112.6838 14.60233542655911"
      },
      "geometry": {
        "type": "Point",
        "coordinates": [
          159.20683597777895,
          -45.40359945242284
        ]
      }
    },
    {
      "type": "Feature",
      "properties": {
        "norad_id": 36622,
        "name": "COSMOS 2251 DEB",
        "group": "cosmos-2251-debris",
        "lat": -27.033887764742946,
        "lon": 138.61892883333238,
        "alt_km": 615.1844185701348,
        "timestamp": "2025-12-11T22:43:47.668121+00:00",
        "meta_object_name": "COSMOS 2251 DEB",
        "meta_object_id": "1993-036BEL",
        "meta_epoch": "2025-12-11T03:20:19.326912",
        "meta_mean_motion": 14.76171413,
        "meta_eccentricity": 0.00687351,
        "meta_inclination": 74.0133,
        "meta_ra_of_asc_node": 148.6143,
        "meta_arg_of_pericenter": 284.3328,
        "meta_mean_anomaly": 75.0222,
        "meta_ephemeris_type": 0,
        "meta_classification_type": "U",
        "meta_norad_cat_id": 36622,
        "meta_element_set_no": 999,
        "meta_rev_at_epoch": 66726,
        "meta_bstar": 0.0010239772,
        "meta_mean_motion_dot": 7.33e-05,
        "meta_mean_motion_ddot": 0,
        "tle_line1": "1 36622U 93036BEL 25345.13911258  .00007330  00000+0  10240-2 0  9990",
        "tle_line2": "2 36622  74.0133 148.6143 0068735 284.3328  75.0222 14.76171413667265"
      },
      "geometry": {
        "type": "Point",
        "coordinates": [
          138.61892883333238,
          -27.033887764742946
        ]
      }
    },
    {
      "type": "Feature",
      "properties": {
        "norad_id": 36632,
        "name": "COSMOS 2251 DEB",
        "group": "cosmos-2251-debris",
        "lat": -45.104678814183515,
        "lon": 130.57990940902084,
        "alt_km": 777.082514560514,
        "timestamp": "2025-12-11T22:43:47.668131+00:00",
        "meta_object_name": "COSMOS 2251 DEB",
        "meta_object_id": "1993-036BEW",
        "meta_epoch": "2025-12-11T03:22:48.137088",
        "meta_mean_motion": 14.43159024,
        "meta_eccentricity": 0.00319439,
        "meta_inclination": 74.0027,
        "meta_ra_of_asc_node": 295.3456,
        "meta_arg_of_pericenter": 43.4523,
        "meta_mean_anomaly": 316.9142,
        "meta_ephemeris_type": 0,
        "meta_classification_type": "U",
        "meta_norad_cat_id": 36632,
        "meta_element_set_no": 999,
        "meta_rev_at_epoch": 65192,
        "meta_bstar": 0.001324385,
        "meta_mean_motion_dot": 4.453e-05,
        "meta_mean_motion_ddot": 0,
        "tle_line1": "1 36632U 93036BEW 25345.14083492  .00004453  00000+0  13244-2 0  9992",
        "tle_line2": "2 36632  74.0027 295.3456 0031943  43.4523 316.9142 14.43159024651929"
      },
      "geometry": {
        "type": "Point",
        "coordinates": [
          130.57990940902084,
          -45.104678814183515
        ]
      }
    },
    {
      "type": "Feature",
      "properties": {
        "norad_id": 37084,
        "name": "COSMOS 2251 DEB",
        "group": "cosmos-2251-debris",
        "lat": 59.85370618611755,
        "lon": -167.3818293589207,
        "alt_km": 625.746689887178,
        "timestamp": "2025-12-11T22:43:47.668141+00:00",
        "meta_object_name": "COSMOS 2251 DEB",
        "meta_object_id": "1993-036BFE",
        "meta_epoch": "2025-12-08T19:15:18.077184",
        "meta_mean_motion": 15.00891112,
        "meta_eccentricity": 0.00979748,
        "meta_inclination": 74.0259,
        "meta_ra_of_asc_node": 169.4673,
        "meta_arg_of_pericenter": 250.8811,
        "meta_mean_anomaly": 108.175,
        "meta_ephemeris_type": 0,
        "meta_classification_type": "U",
        "meta_norad_cat_id": 37084,
        "meta_element_set_no": 999,
        "meta_rev_at_epoch": 66208,
        "meta_bstar": 0.00080064992,
        "meta_mean_motion_dot": 0.00011267,
        "meta_mean_motion_ddot": 0,
        "tle_line1": "1 37084U 93036BFE 25342.80229256  .00011267  00000+0  80065-3 0  9991",
        "tle_line2": "2 37084  74.0259 169.4673 0097974 250.8811 108.1750 15.00891112662080"
      },
      "geometry": {
        "type": "Point",
        "coordinates": [
          -167.3818293589207,
          59.85370618611755
        ]
      }
    },
    {
      "type": "Feature",
      "properties": {
        "norad_id": 37085,
        "name": "COSMOS 2251 DEB",
        "group": "cosmos-2251-debris",
        "lat": -7.344998111813002,
        "lon": -144.34206287746238,
        "alt_km": 439.2862469221318,
        "timestamp": "2025-12-11T22:43:47.668151+00:00",
        "meta_object_name": "COSMOS 2251 DEB",
        "meta_object_id": "1993-036BFF",
        "meta_epoch": "2025-12-02T23:36:37.668384",
        "meta_mean_motion": 15.39020756,
        "meta_eccentricity": 0.0022856,
        "meta_inclination": 73.9503,
        "meta_ra_of_asc_node": 237.2473,
        "meta_arg_of_pericenter": 76.375,
        "meta_mean_anomaly": 284,
        "meta_ephemeris_type": 0,
        "meta_classification_type": "U",
        "meta_norad_cat_id": 37085,
        "meta_element_set_no": 999,
        "meta_rev_at_epoch": 66987,
        "meta_bstar": 0.0028642077,
        "meta_mean_motion_dot": 0.00113322,
        "meta_mean_motion_ddot": 0,
        "tle_line1": "1 37085U 93036BFF 25336.98376931  .00113322  00000+0  28642-2 0  9994",
        "tle_line2": "2 37085  73.9503 237.2473 0022856  76.3750 284.0000 15.39020756669879"
      },
      "geometry": {
        "type": "Point",
        "coordinates": [
          -144.34206287746238,
          -7.344998111813002
        ]
      }
    },
    {
      "type": "Feature",
      "properties": {
        "norad_id": 37089,
        "name": "COSMOS 2251 DEB",
        "group": "cosmos-2251-debris",
        "lat": 29.936872707694654,
        "lon": 156.73062720114783,
        "alt_km": 791.2815326500358,
        "timestamp": "2025-12-11T22:43:47.668161+00:00",
        "meta_object_name": "COSMOS 2251 DEB",
        "meta_object_id": "1993-036BFK",
        "meta_epoch": "2025-12-09T17:42:06.763392",
        "meta_mean_motion": 14.52845175,
        "meta_eccentricity": 0.01352804,
        "meta_inclination": 74.0366,
        "meta_ra_of_asc_node": 151.4105,
        "meta_arg_of_pericenter": 252.1975,
        "meta_mean_anomaly": 106.439,
        "meta_ephemeris_type": 0,
        "meta_classification_type": "U",
        "meta_norad_cat_id": 37089,
        "meta_element_set_no": 999,
        "meta_rev_at_epoch": 66066,
        "meta_bstar": 0.0037030969,
        "meta_mean_motion_dot": 0.00017193,
        "meta_mean_motion_ddot": 0,
        "tle_line1": "1 37089U 93036BFK 25343.73757828  .00017193  00000+0  37031-2 0  9998",
        "tle_line2": "2 37089  74.0366 151.4105 0135280 252.1975 106.4390 14.52845175660661"
      },
      "geometry": {
        "type": "Point",
        "coordinates": [
          156.73062720114783,
          29.936872707694654
        ]
      }
    }
  ]
}